start=new Date('2021-12-18T00:00:00.000Z').valueOf();
sats=[{"REF_FRAME":"TEME","ECCENTRICITY":"0.00018240","SITE":"AFETR","DECAY_DATE":null,"ELEMENT_SET_NO":"999","MEAN_MOTION_DDOT":"0.0000000000000","MEAN_MOTION_DOT":"0.00002212","EPHEMERIS_TYPE":"0","BSTAR":"0.00016735000000","PERIOD":"95.592","MEAN_MOTION":"15.06405652","TIME_SYSTEM":"UTC","LAUNCH_DATE":"2020-01-29","APOAPSIS":"548.459","TLE_LINE1":"1 45088U 20006AW  21351.73573512  .00002212  00000-0  16735-3 0  9990","EPOCH":"2021-12-17T17:39:27.514368","INCLINATION":"53.0548","COUNTRY_CODE":"US","MEAN_ANOMALY":"300.1512","NORAD_CAT_ID":"45088","REV_AT_EPOCH":"10446","CENTER_NAME":"EARTH","PERIAPSIS":"545.933","MEAN_ELEMENT_THEORY":"SGP4","RA_OF_ASC_NODE":"333.2184","CLASSIFICATION_TYPE":"U","ARG_OF_PERICENTER":"59.9657","RCS_SIZE":"LARGE","OBJECT_ID":"2020-006AW","TLE_LINE2":"2 45088  53.0548 333.2184 0001824  59.9657 300.1512 15.06405652104463","SEMIMAJOR_AXIS":"6925.331","FILE":"3243045","OBJECT_NAME":"STARLINK-1183","GP_ID":"191901118","OBJECT_TYPE":"PAYLOAD"},{"MEAN_MOTION_DDOT":"0.0000000000000","MEAN_MOTION_DOT":"0.00001592","BSTAR":"0.00012574000000","EPHEMERIS_TYPE":"0","PERIOD":"95.592","REF_FRAME":"TEME","ECCENTRICITY":"0.00015360","SITE":"AFETR","ELEMENT_SET_NO":"999","DECAY_DATE":null,"APOAPSIS":"548.262","EPOCH":"2021-12-17T16:02:33.870048","TLE_LINE1":"1 45089U 20006AX  21351.66844757  .00001592  00000-0  12574-3 0  9992","INCLINATION":"53.0557","COUNTRY_CODE":"US","MEAN_MOTION":"15.06405093","TIME_SYSTEM":"UTC","LAUNCH_DATE":"2020-01-29","PERIAPSIS":"546.134","MEAN_ELEMENT_THEORY":"SGP4","MEAN_ANOMALY":"293.3689","NORAD_CAT_ID":"45089","REV_AT_EPOCH":"10446","CENTER_NAME":"EARTH","FILE":"3243045","TLE_LINE2":"2 45089  53.0557 333.4700 0001536  66.7461 293.3689 15.06405093104466","SEMIMAJOR_AXIS":"6925.333","OBJECT_NAME":"STARLINK-1136","GP_ID":"191899866","OBJECT_TYPE":"PAYLOAD","RA_OF_ASC_NODE":"333.4700","CLASSIFICATION_TYPE":"U","ARG_OF_PERICENTER":"66.7461","RCS_SIZE":"LARGE","OBJECT_ID":"2020-006AX"},{"MEAN_MOTION_DOT":"0.00000979","MEAN_MOTION_DDOT":"0.0000000000000","PERIOD":"95.592","EPHEMERIS_TYPE":"0","BSTAR":"0.00008458900000","ECCENTRICITY":"0.00021220","REF_FRAME":"TEME","ELEMENT_SET_NO":"999","DECAY_DATE":null,"SITE":"AFETR","APOAPSIS":"548.665","COUNTRY_CODE":"US","TLE_LINE1":"1 45090U 20006AY  21351.65464482  .00000979  00000-0  84589-4 0  9990","EPOCH":"2021-12-17T15:42:41.312448","INCLINATION":"53.0557","MEAN_MOTION":"15.06406052","LAUNCH_DATE":"2020-01-29","TIME_SYSTEM":"UTC","MEAN_ELEMENT_THEORY":"SGP4","PERIAPSIS":"545.725","MEAN_ANOMALY":"310.1670","CENTER_NAME":"EARTH","NORAD_CAT_ID":"45090","REV_AT_EPOCH":"10445","OBJECT_NAME":"STARLINK-1176","TLE_LINE2":"2 45090  53.0557 333.5720 0002122  49.9505 310.1670 15.06406052104458","SEMIMAJOR_AXIS":"6925.330","FILE":"3243045","OBJECT_TYPE":"PAYLOAD","GP_ID":"191900116","RA_OF_ASC_NODE":"333.5720","RCS_SIZE":"LARGE","ARG_OF_PERICENTER":"49.9505","OBJECT_ID":"2020-006AY","CLASSIFICATION_TYPE":"U"},{"MEAN_MOTION_DDOT":"0.0000000000000","MEAN_MOTION_DOT":"0.00001400","BSTAR":"0.00011289000000","EPHEMERIS_TYPE":"0","PERIOD":"95.592","REF_FRAME":"TEME","ECCENTRICITY":"0.00020400","SITE":"AFETR","DECAY_DATE":null,"ELEMENT_SET_NO":"999","APOAPSIS":"548.605","TLE_LINE1":"1 45092U 20006BA  21351.69519255  .00001400  00000-0  11289-3 0  9991","EPOCH":"2021-12-17T16:41:04.636320","INCLINATION":"53.0538","COUNTRY_CODE":"US","MEAN_MOTION":"15.06407032","TIME_SYSTEM":"UTC","LAUNCH_DATE":"2020-01-29","PERIAPSIS":"545.779","MEAN_ELEMENT_THEORY":"SGP4","MEAN_ANOMALY":"304.7480","NORAD_CAT_ID":"45092","REV_AT_EPOCH":"10445","CENTER_NAME":"EARTH","SEMIMAJOR_AXIS":"6925.327","TLE_LINE2":"2 45092  53.0538 333.3985 0002040  55.3701 304.7480 15.06407032104455","FILE":"3243045","OBJECT_NAME":"STARLINK-1137","GP_ID":"191901367","OBJECT_TYPE":"PAYLOAD","RA_OF_ASC_NODE":"333.3985","CLASSIFICATION_TYPE":"U","RCS_SIZE":"LARGE","ARG_OF_PERICENTER":"55.3701","OBJECT_ID":"2020-006BA"},{"OBJECT_NAME":"STARLINK-1142","TLE_LINE2":"2 45093  53.0550 333.4082 0001921  62.1956 297.9228 15.06406176104455","FILE":"3243045","SEMIMAJOR_AXIS":"6925.330","OBJECT_TYPE":"PAYLOAD","GP_ID":"191901618","RA_OF_ASC_NODE":"333.4082","OBJECT_ID":"2020-006BB","RCS_SIZE":"LARGE","ARG_OF_PERICENTER":"62.1956","CLASSIFICATION_TYPE":"U","MEAN_ELEMENT_THEORY":"SGP4","PERIAPSIS":"545.864","MEAN_ANOMALY":"297.9228","CENTER_NAME":"EARTH","REV_AT_EPOCH":"10445","NORAD_CAT_ID":"45093","APOAPSIS":"548.525","COUNTRY_CODE":"US","INCLINATION":"53.0550","EPOCH":"2021-12-17T16:35:46.108032","TLE_LINE1":"1 45093U 20006BB  21351.69150588  .00004269  00000-0  30529-3 0  9996","MEAN_MOTION":"15.06406176","LAUNCH_DATE":"2020-01-29","TIME_SYSTEM":"UTC","MEAN_MOTION_DDOT":"0.0000000000000","MEAN_MOTION_DOT":"0.00004269","PERIOD":"95.592","BSTAR":"0.00030529000000","EPHEMERIS_TYPE":"0","ECCENTRICITY":"0.00019210","REF_FRAME":"TEME","ELEMENT_SET_NO":"999","DECAY_DATE":null,"SITE":"AFETR"},{"MEAN_MOTION":"15.06399609","TIME_SYSTEM":"UTC","LAUNCH_DATE":"2020-01-29","APOAPSIS":"548.474","EPOCH":"2021-12-17T08:59:18.229056","TLE_LINE1":"1 45094U 20006BC  21351.37451654  .00000260  00000-0  36392-4 0  9992","INCLINATION":"53.0573","COUNTRY_CODE":"US","REF_FRAME":"TEME","ECCENTRICITY":"0.00018180","SITE":"AFETR","DECAY_DATE":null,"ELEMENT_SET_NO":"999","MEAN_MOTION_DDOT":"0.0000000000000","MEAN_MOTION_DOT":"0.00000260","BSTAR":"0.00003639200000","EPHEMERIS_TYPE":"0","PERIOD":"95.592","RA_OF_ASC_NODE":"334.8222","CLASSIFICATION_TYPE":"U","RCS_SIZE":"LARGE","ARG_OF_PERICENTER":"55.9073","OBJECT_ID":"2020-006BC","SEMIMAJOR_AXIS":"6925.350","TLE_LINE2":"2 45094  53.0573 334.8222 0001818  55.9073 304.2089 15.06399609104760","FILE":"3243045","OBJECT_NAME":"STARLINK-1146","GP_ID":"191900366","OBJECT_TYPE":"PAYLOAD","MEAN_ANOMALY":"304.2089","NORAD_CAT_ID":"45094","REV_AT_EPOCH":"10476","CENTER_NAME":"EARTH","PERIAPSIS":"545.956","MEAN_ELEMENT_THEORY":"SGP4"},{"MEAN_ELEMENT_THEORY":"SGP4","PERIAPSIS":"545.761","CENTER_NAME":"EARTH","NORAD_CAT_ID":"45095","REV_AT_EPOCH":"10442","MEAN_ANOMALY":"301.5139","OBJECT_TYPE":"PAYLOAD","GP_ID":"191900616","OBJECT_NAME":"STARLINK-1147","FILE":"3243045","TLE_LINE2":"2 45095  53.0565 334.5233 0002066  58.6052 301.5139 15.06407149104422","SEMIMAJOR_AXIS":"6925.327","RCS_SIZE":"LARGE","ARG_OF_PERICENTER":"58.6052","OBJECT_ID":"2020-006BD","CLASSIFICATION_TYPE":"U","RA_OF_ASC_NODE":"334.5233","PERIOD":"95.592","EPHEMERIS_TYPE":"0","BSTAR":"0.00004194400000","MEAN_MOTION_DDOT":"0.0000000000000","MEAN_MOTION_DOT":"0.00000343","ELEMENT_SET_NO":"999","DECAY_DATE":null,"SITE":"AFETR","ECCENTRICITY":"0.00020660","REF_FRAME":"TEME","COUNTRY_CODE":"US","TLE_LINE1":"1 45095U 20006BD  21351.44454283  .00000343  00000-0  41944-4 0  9993","EPOCH":"2021-12-17T10:40:08.500512","INCLINATION":"53.0565","APOAPSIS":"548.622","LAUNCH_DATE":"2020-01-29","TIME_SYSTEM":"UTC","MEAN_MOTION":"15.06407149"},{"DECAY_DATE":null,"ELEMENT_SET_NO":"999","SITE":"AFETR","ECCENTRICITY":"0.00018710","REF_FRAME":"TEME","PERIOD":"95.592","BSTAR":"0.00002829800000","EPHEMERIS_TYPE":"0","MEAN_MOTION_DDOT":"0.0000000000000","MEAN_MOTION_DOT":"0.00000140","LAUNCH_DATE":"2020-01-29","TIME_SYSTEM":"UTC","MEAN_MOTION":"15.06403671","COUNTRY_CODE":"US","INCLINATION":"53.0561","TLE_LINE1":"1 45096U 20006BE  21351.23813200  .00000140  00000-0  28298-4 0  9991","EPOCH":"2021-12-17T05:42:54.604800","APOAPSIS":"548.498","CENTER_NAME":"EARTH","REV_AT_EPOCH":"10438","NORAD_CAT_ID":"45096","MEAN_ANOMALY":"299.6594","MEAN_ELEMENT_THEORY":"SGP4","PERIAPSIS":"545.907","OBJECT_ID":"2020-006BE","ARG_OF_PERICENTER":"60.4581","RCS_SIZE":"LARGE","CLASSIFICATION_TYPE":"U","RA_OF_ASC_NODE":"335.4549","OBJECT_TYPE":"PAYLOAD","GP_ID":"191900868","OBJECT_NAME":"STARLINK-1152","FILE":"3243045","TLE_LINE2":"2 45096  53.0561 335.4549 0001871  60.4581 299.6594 15.06403671104383","SEMIMAJOR_AXIS":"6925.337"},{"CENTER_NAME":"EARTH","REV_AT_EPOCH":"10445","NORAD_CAT_ID":"45098","MEAN_ANOMALY":"302.6910","MEAN_ELEMENT_THEORY":"SGP4","PERIAPSIS":"545.954","OBJECT_ID":"2020-006BG","RCS_SIZE":"LARGE","ARG_OF_PERICENTER":"57.4253","CLASSIFICATION_TYPE":"U","RA_OF_ASC_NODE":"333.4492","OBJECT_TYPE":"PAYLOAD","GP_ID":"191901119","OBJECT_NAME":"STARLINK-1184","SEMIMAJOR_AXIS":"6925.337","TLE_LINE2":"2 45098  53.0562 333.4492 0001803  57.4253 302.6910 15.06403714104451","FILE":"3243045","ELEMENT_SET_NO":"999","DECAY_DATE":null,"SITE":"AFETR","ECCENTRICITY":"0.00018030","REF_FRAME":"TEME","PERIOD":"95.592","EPHEMERIS_TYPE":"0","BSTAR":"0.00017488000000","MEAN_MOTION_DDOT":"0.0000000000000","MEAN_MOTION_DOT":"0.00002324","LAUNCH_DATE":"2020-01-29","TIME_SYSTEM":"UTC","MEAN_MOTION":"15.06403714","COUNTRY_CODE":"US","INCLINATION":"53.0562","EPOCH":"2021-12-17T16:25:08.794848","TLE_LINE1":"1 45098U 20006BG  21351.68412957  .00002324  00000-0  17488-3 0  9990","APOAPSIS":"548.451"},{"MEAN_ELEMENT_THEORY":"SGP4","PERIAPSIS":"545.869","MEAN_ANOMALY":"307.0767","CENTER_NAME":"EARTH","REV_AT_EPOCH":"10445","NORAD_CAT_ID":"45099","OBJECT_NAME":"STARLINK-1186","FILE":"3243045","TLE_LINE2":"2 45099  53.0572 333.5820 0001925  53.0398 307.0767 15.06403885104454","SEMIMAJOR_AXIS":"6925.337","OBJECT_TYPE":"PAYLOAD","GP_ID":"191899867","RA_OF_ASC_NODE":"333.5820","OBJECT_ID":"2020-006BH","RCS_SIZE":"LARGE","ARG_OF_PERICENTER":"53.0398","CLASSIFICATION_TYPE":"U","MEAN_MOTION_DDOT":"0.0000000000000","MEAN_MOTION_DOT":"0.00000040","PERIOD":"95.592","BSTAR":"0.00002162600000","EPHEMERIS_TYPE":"0","ECCENTRICITY":"0.00019250","REF_FRAME":"TEME","ELEMENT_SET_NO":"999","DECAY_DATE":null,"SITE":"AFETR","APOAPSIS":"548.535","COUNTRY_CODE":"US","INCLINATION":"53.0572","EPOCH":"2021-12-17T15:37:22.851552","TLE_LINE1":"1 45099U 20006BH  21351.65095893  .00000040  00000-0  21626-4 0  9997","MEAN_MOTION":"15.06403885","LAUNCH_DATE":"2020-01-29","TIME_SYSTEM":"UTC"}];
